ONEWEB-0668             
1 56711U 23068B   25307.65446520  .00000032  00000+0  48788-4 0  9991
2 56711  87.9006 273.6777 0002071  69.6789 290.4566 13.18149549122109
ONEWEB-0676             
1 56712U 23068C   25307.64985697  .00002849  00000+0  74168-2 0  9991
2 56712  87.8990 273.6992 0001938  85.5480 274.5872 13.16582397122020
ONEWEB-0677             
1 56713U 23068D   25307.96179460  .00000130  00000+0  28840-3 0  9998
2 56713  87.9189 319.3509 0001713  90.9453 269.1877 13.20772774120078
ONEWEB-0678             
1 56714U 23068E   25307.95424474 -.00000019  00000+0 -85759-4 0  9997
2 56714  87.8957 304.1294 0002034  99.1922 260.9438 13.15549766119676
ONEWEB-0679             
1 56715U 23068F   25307.91282645  .00000089  00000+0  19855-3 0  9994
2 56715  87.8991 273.6326 0001548  69.3186 290.8111 13.16595000122083
ONEWEB-0680             
1 56716U 23068G   25307.89984785  .00000006  00000+0 -17604-4 0  9997
2 56716  87.9171 288.9033 0001902  67.3670 292.7665 13.21825630121332
ONEWEB-0681             
1 56717U 23068H   25307.95499873  .00000072  00000+0  14302-3 0  9997
2 56717  87.9170 288.9098 0000974 109.6521 250.4718 13.21826845121335
ONEWEB-0682             
1 56718U 23068J   25307.98040125  .00000150  00000+0  36381-3 0  9991
2 56718  87.8954 304.1412 0001807  74.5967 285.5363 13.15548719119848
